{
  "type": "FeatureCollection",
  "features": [
    {
      "type": "Feature",
      "properties": {
        "norad_id": 35829,
        "name": "COSMOS 2251 DEB",
        "group": "cosmos-2251-debris",
        "lat": 58.24955774884573,
        "lon": 146.1331071956682,
        "alt_km": 639.2333746368122,
        "timestamp": "2025-12-02T15:49:07.591107+00:00",
        "meta_object_name": "COSMOS 2251 DEB",
        "meta_object_id": "1993-036ATB",
        "meta_epoch": "2025-11-30T16:21:21.662208",
        "meta_mean_motion": 14.75731719,
        "meta_eccentricity": 0.00079875,
        "meta_inclination": 74.0228,
        "meta_ra_of_asc_node": 122.4242,
        "meta_arg_of_pericenter": 184.1441,
        "meta_mean_anomaly": 175.9668,
        "meta_ephemeris_type": 0,
        "meta_classification_type": "U",
        "meta_norad_cat_id": 35829,
        "meta_element_set_no": 999,
        "meta_rev_at_epoch": 87597,
        "meta_bstar": 0.0025962161,
        "meta_mean_motion_dot": 0.00017791,
        "meta_mean_motion_ddot": 0,
        "tle_line1": "1 35829U 93036ATB 25334.68150072  .00017791  00000+0  25962-2 0  9994",
        "tle_line2": "2 35829  74.0228 122.4242 0007987 184.1441 175.9668 14.75731719875976"
      },
      "geometry": {
        "type": "Point",
        "coordinates": [
          146.1331071956682,
          58.24955774884573
        ]
      }
    },
    {
      "type": "Feature",
      "properties": {
        "norad_id": 35830,
        "name": "COSMOS 2251 DEB",
        "group": "cosmos-2251-debris",
        "lat": 73.42320898457913,
        "lon": 28.204889490061422,
        "alt_km": 888.7092898589381,
        "timestamp": "2025-12-02T15:49:07.591118+00:00",
        "meta_object_name": "COSMOS 2251 DEB",
        "meta_object_id": "1993-036ATC",
        "meta_epoch": "2025-12-01T03:57:40.475520",
        "meta_mean_motion": 14.2387799,
        "meta_eccentricity": 0.01234559,
        "meta_inclination": 73.8619,
        "meta_ra_of_asc_node": 287.4996,
        "meta_arg_of_pericenter": 257.8622,
        "meta_mean_anomaly": 100.8671,
        "meta_ephemeris_type": 0,
        "meta_classification_type": "U",
        "meta_norad_cat_id": 35830,
        "meta_element_set_no": 999,
        "meta_rev_at_epoch": 61099,
        "meta_bstar": 0.00092751736,
        "meta_mean_motion_dot": 2.272e-05,
        "meta_mean_motion_ddot": 0,
        "tle_line1": "1 35830U 93036ATC 25335.16505180  .00002272  00000+0  92752-3 0  9994",
        "tle_line2": "2 35830  73.8619 287.4996 0123455 257.8622 100.8671 14.23877990610990"
      },
      "geometry": {
        "type": "Point",
        "coordinates": [
          28.204889490061422,
          73.42320898457913
        ]
      }
    },
    {
      "type": "Feature",
      "properties": {
        "norad_id": 35834,
        "name": "COSMOS 2251 DEB",
        "group": "cosmos-2251-debris",
        "lat": -28.847587613281327,
        "lon": -46.654118723517726,
        "alt_km": 926.0549574526749,
        "timestamp": "2025-12-02T15:49:07.591128+00:00",
        "meta_object_name": "COSMOS 2251 DEB",
        "meta_object_id": "1993-036ATG",
        "meta_epoch": "2025-12-01T16:59:11.672736",
        "meta_mean_motion": 14.12964835,
        "meta_eccentricity": 0.01090429,
        "meta_inclination": 73.9309,
        "meta_ra_of_asc_node": 324.1737,
        "meta_arg_of_pericenter": 126.9375,
        "meta_mean_anomaly": 46.2804,
        "meta_ephemeris_type": 0,
        "meta_classification_type": "U",
        "meta_norad_cat_id": 35834,
        "meta_element_set_no": 999,
        "meta_rev_at_epoch": 66107,
        "meta_bstar": 0.00011772733,
        "meta_mean_motion_dot": 2.07e-06,
        "meta_mean_motion_ddot": 0,
        "tle_line1": "1 35834U 93036ATG 25335.70777399  .00000207  00000+0  11773-3 0  9991",
        "tle_line2": "2 35834  73.9309 324.1737 0109042 126.9375  46.2804 14.12964835661079"
      },
      "geometry": {
        "type": "Point",
        "coordinates": [
          -46.654118723517726,
          -28.847587613281327
        ]
      }
    },
    {
      "type": "Feature",
      "properties": {
        "norad_id": 35835,
        "name": "COSMOS 2251 DEB",
        "group": "cosmos-2251-debris",
        "lat": -72.56180327300474,
        "lon": -140.07491811115088,
        "alt_km": 1147.227441668365,
        "timestamp": "2025-12-02T15:49:07.591138+00:00",
        "meta_object_name": "COSMOS 2251 DEB",
        "meta_object_id": "1993-036ATH",
        "meta_epoch": "2025-11-23T15:11:23.439552",
        "meta_mean_motion": 13.82767918,
        "meta_eccentricity": 0.02888493,
        "meta_inclination": 74.0623,
        "meta_ra_of_asc_node": 300.5555,
        "meta_arg_of_pericenter": 86.7647,
        "meta_mean_anomaly": 276.6477,
        "meta_ephemeris_type": 0,
        "meta_classification_type": "U",
        "meta_norad_cat_id": 35835,
        "meta_element_set_no": 999,
        "meta_rev_at_epoch": 61435,
        "meta_bstar": 0.00097699609,
        "meta_mean_motion_dot": 1.444e-05,
        "meta_mean_motion_ddot": 0,
        "tle_line1": "1 35835U 93036ATH 25327.63291018  .00001444  00000+0  97700-3 0  9992",
        "tle_line2": "2 35835  74.0623 300.5555 0288849  86.7647 276.6477 13.82767918614358"
      },
      "geometry": {
        "type": "Point",
        "coordinates": [
          -140.07491811115088,
          -72.56180327300474
        ]
      }
    },
    {
      "type": "Feature",
      "properties": {
        "norad_id": 35836,
        "name": "COSMOS 2251 DEB",
        "group": "cosmos-2251-debris",
        "lat": -7.467816922524346,
        "lon": 14.659488793617308,
        "alt_km": 655.0709008743561,
        "timestamp": "2025-12-02T15:49:07.591149+00:00",
        "meta_object_name": "COSMOS 2251 DEB",
        "meta_object_id": "1993-036ATJ",
        "meta_epoch": "2025-12-02T06:48:09.484704",
        "meta_mean_motion": 14.70613817,
        "meta_eccentricity": 0.00250781,
        "meta_inclination": 74.0325,
        "meta_ra_of_asc_node": 193.2375,
        "meta_arg_of_pericenter": 253.1617,
        "meta_mean_anomaly": 106.6804,
        "meta_ephemeris_type": 0,
        "meta_classification_type": "U",
        "meta_norad_cat_id": 35836,
        "meta_element_set_no": 999,
        "meta_rev_at_epoch": 63366,
        "meta_bstar": 0.0018704914,
        "meta_mean_motion_dot": 0.00011418,
        "meta_mean_motion_ddot": 0,
        "tle_line1": "1 35836U 93036ATJ 25336.28344311  .00011418  00000+0  18705-2 0  9998",
        "tle_line2": "2 35836  74.0325 193.2375 0025078 253.1617 106.6804 14.70613817633662"
      },
      "geometry": {
        "type": "Point",
        "coordinates": [
          14.659488793617308,
          -7.467816922524346
        ]
      }
    },
    {
      "type": "Feature",
      "properties": {
        "norad_id": 35837,
        "name": "COSMOS 2251 DEB",
        "group": "cosmos-2251-debris",
        "lat": 38.677648816067276,
        "lon": -122.0775552763017,
        "alt_km": 1094.4057288093973,
        "timestamp": "2025-12-02T15:49:07.591159+00:00",
        "meta_object_name": "COSMOS 2251 DEB",
        "meta_object_id": "1993-036ATK",
        "meta_epoch": "2025-12-01T23:51:57.289248",
        "meta_mean_motion": 13.6337538,
        "meta_eccentricity": 0.04221684,
        "meta_inclination": 73.722,
        "meta_ra_of_asc_node": 225.5014,
        "meta_arg_of_pericenter": 147.9905,
        "meta_mean_anomaly": 236.1342,
        "meta_ephemeris_type": 0,
        "meta_classification_type": "U",
        "meta_norad_cat_id": 35837,
        "meta_element_set_no": 999,
        "meta_rev_at_epoch": 57830,
        "meta_bstar": 0.0015598764,
        "meta_mean_motion_dot": 2.227e-05,
        "meta_mean_motion_ddot": 0,
        "tle_line1": "1 35837U 93036ATK 25335.99441307  .00002227  00000+0  15599-2 0  9995",
        "tle_line2": "2 35837  73.7220 225.5014 0422168 147.9905 236.1342 13.63375380578309"
      },
      "geometry": {
        "type": "Point",
        "coordinates": [
          -122.0775552763017,
          38.677648816067276
        ]
      }
    },
    {
      "type": "Feature",
      "properties": {
        "norad_id": 35839,
        "name": "COSMOS 2251 DEB",
        "group": "cosmos-2251-debris",
        "lat": -18.97711350798388,
        "lon": 170.93175047262466,
        "alt_km": 438.39325433721115,
        "timestamp": "2025-12-02T15:49:07.591170+00:00",
        "meta_object_name": "COSMOS 2251 DEB",
        "meta_object_id": "1993-036ATM",
        "meta_epoch": "2025-12-01T01:39:10.982304",
        "meta_mean_motion": 15.44448514,
        "meta_eccentricity": 0.00041721,
        "meta_inclination": 74.2115,
        "meta_ra_of_asc_node": 348.7704,
        "meta_arg_of_pericenter": 350.3118,
        "meta_mean_anomaly": 9.8012,
        "meta_ephemeris_type": 0,
        "meta_classification_type": "U",
        "meta_norad_cat_id": 35839,
        "meta_element_set_no": 999,
        "meta_rev_at_epoch": 88387,
        "meta_bstar": 0.0041618177,
        "meta_mean_motion_dot": 0.00197705,
        "meta_mean_motion_ddot": 0,
        "tle_line1": "1 35839U 93036ATM 25335.06887711  .00197705  00000+0  41618-2 0  9995",
        "tle_line2": "2 35839  74.2115 348.7704 0004172 350.3118   9.8012 15.44448514883872"
      },
      "geometry": {
        "type": "Point",
        "coordinates": [
          170.93175047262466,
          -18.97711350798388
        ]
      }
    }
  ]
}